STARLINK-3988           
1 52625U 22052AD  26068.92537128 -.00000376  00000+0 -55486-5 0  9990
2 52625  53.2177 268.0666 0001396  96.7561 263.3590 15.08836230211024
LEMUR-2-UNTITLED-SC     
1 63351U 25061A   26068.89211098  .00005783  00000+0  33296-3 0  9990
2 63351  97.5556  45.0864 0017373 245.6030 114.3388 15.12695529 52577
